OBJECT_NAME,OBJECT_ID,EPOCH,MEAN_MOTION,ECCENTRICITY,INCLINATION,RA_OF_ASC_NODE,ARG_OF_PERICENTER,MEAN_ANOMALY,EPHEMERIS_TYPE,CLASSIFICATION_TYPE,NORAD_CAT_ID,ELEMENT_SET_NO,REV_AT_EPOCH,BSTAR,MEAN_MOTION_DOT,MEAN_MOTION_DDOT
COSMOS 2548,2020-091D,2023-02-02T01:40:30.863424,12.42893122,.0015131,82.5039,347.3215,3.3793,356.7384,0,U,47230,999,9826,.90075E-4,.22E-6,0
GAOFEN 14,2020-092A,2023-02-02T03:38:45.974400,15.25592430,.0004667,97.3640,112.7305,352.2446,94.9699,0,U,47231,999,12013,.31643E-3,.7969E-4,0
GECAM-A,2020-094A,2023-02-02T03:39:27.770400,14.91952858,.0012579,28.9979,44.5545,104.6876,255.5115,0,U,47234,999,11712,.15409E-3,.1736E-4,0
GECAM-B,2020-094B,2023-02-02T02:19:12.732096,14.92089202,.001275,28.9995,44.0942,104.6835,255.5126,0,U,47235,999,11712,.24332E-3,.267E-4,0
SXM-7,2020-096A,2023-02-01T14:58:05.259936,1.00271446,.0001722,0.0183,62.0571,137.2487,71.5278,0,U,47240,999,798,0,-.202E-5,0
IPM 2 & BREEZE-M R/B,2020-097A,2023-01-31T13:53:50.042688,0.95297667,.0084416,2.0181,92.3832,241.7046,117.2116,0,U,47242,999,751,0,-.88E-6,0
STRIX-ALPHA,2020-098A,2023-02-02T03:33:17.198208,15.35355169,.0012771,97.2930,284.6807,70.9113,85.0033,0,U,47253,999,11864,.78277E-3,.26932E-3,0
CMS-01,2020-099A,2023-02-01T02:00:14.846688,1.00272098,.0008258,0.0722,98.9444,179.6520,325.4705,0,U,47256,999,784,0,-.162E-5,0
ONEWEB-0102,2020-100A,2023-02-01T19:52:12.674208,13.12444656,.0001145,87.8960,235.2656,88.7468,271.3792,0,U,47258,999,10321,-.64615E-3,-.22E-5,0
ONEWEB-0109,2020-100B,2023-02-01T12:48:20.524896,13.12442840,.0001491,87.8925,235.3464,85.8061,274.3238,0,U,47259,999,10300,.54224E-3,.208E-5,0
ONEWEB-0110,2020-100C,2023-02-01T13:21:54.068256,13.12441536,.0001273,87.8920,235.3138,84.2952,275.8322,0,U,47260,999,10317,.90879E-3,.34E-5,0
ONEWEB-0111,2020-100D,2023-02-01T19:36:58.557888,13.12441230,.0001258,87.8920,235.2447,88.2410,271.8863,0,U,47261,999,10304,-.13418E-2,-.47E-5,0
ONEWEB-0114,2020-100E,2023-02-01T13:03:33.840288,13.12445935,.0001126,87.8922,235.3244,113.8227,246.3019,0,U,47262,999,10296,.1228E-2,.455E-5,0
ONEWEB-0117,2020-100F,2023-02-01T12:51:23.655744,13.12442781,.0001515,87.8926,235.3524,86.6348,273.4954,0,U,47263,999,10297,.72953E-3,.275E-5,0
ONEWEB-0118,2020-100G,2023-02-01T11:47:20.283936,13.12442446,.0001705,87.8927,235.3141,117.4284,242.7018,0,U,47264,999,10316,-.42363E-4,-.3E-7,0
ONEWEB-0119,2020-100H,2023-02-02T01:15:26.750880,13.12439177,.0001517,87.8959,235.2213,84.5761,275.5540,0,U,47265,999,10321,-.10324E-2,-.359E-5,0
ONEWEB-0120,2020-100J,2023-02-02T01:59:41.051328,13.12444413,.0001365,87.8887,235.2532,98.1747,261.9536,0,U,47266,999,10324,.13244E-2,.489E-5,0
ONEWEB-0121,2020-100K,2023-02-01T20:04:25.436928,13.12442579,.0001544,87.8861,235.2729,81.6519,278.4784,0,U,47267,999,10312,.21577E-3,.9E-6,0
ONEWEB-0122,2020-100L,2023-02-01T19:55:15.716928,13.12444908,.0001253,87.8923,235.2670,89.3930,270.7342,0,U,47268,999,10303,-.44148E-3,-.146E-5,0
ONEWEB-0123,2020-100M,2023-02-02T01:18:31.315968,13.12444588,.0001483,87.8950,235.2256,91.1368,268.9930,0,U,47269,999,10320,-.51129E-3,-.171E-5,0
ONEWEB-0124,2020-100N,2023-02-01T19:30:51.405408,13.12444714,.0001592,87.8920,235.2763,72.5628,287.5675,0,U,47270,999,10305,-.12173E-2,-.425E-5,0
ONEWEB-0125,2020-100P,2023-02-01T13:27:58.757472,13.12443615,.000141,87.8924,235.3430,94.5809,265.5481,0,U,47271,999,10308,.6071E-3,.231E-5,0
ONEWEB-0126,2020-100Q,2023-02-01T19:35:25.636416,13.12445826,.0001259,87.8923,235.2880,93.7411,266.3862,0,U,47272,999,10318,-.12441E-2,-.435E-5,0
ONEWEB-0127,2020-100R,2023-02-01T13:12:45.981216,13.12441663,.0001391,87.8960,235.3090,90.9398,269.1889,0,U,47273,999,10317,.23389E-2,.854E-5,0
ONEWEB-0128,2020-100S,2023-02-02T02:31:41.425248,13.12443844,.0001254,87.8928,235.2005,73.7669,286.3597,0,U,47274,999,10326,-.42747E-4,-.3E-7,0
ONEWEB-0129,2020-100T,2023-02-01T13:15:47.447136,13.12441142,.0001375,87.8921,235.3546,167.4136,192.7027,0,U,47275,999,10312,.13034E-2,.482E-5,0
ONEWEB-0130,2020-100U,2023-02-01T12:02:34.839168,13.12440178,.0001396,87.8921,235.3572,86.5325,273.5963,0,U,47276,999,10308,-.78609E-3,-.27E-5,0
ONEWEB-0131,2020-100V,2023-02-02T02:37:47.438976,13.12442904,.0001484,87.8921,235.1815,82.3246,277.8051,0,U,47277,999,10320,-.55108E-3,-.186E-5,0
ONEWEB-0132,2020-100W,2023-02-01T20:01:21.423072,13.12444913,.0001335,87.8923,235.2378,95.5037,264.6244,0,U,47278,999,10306,-.17278E-3,-.49E-6,0
ONEWEB-0133,2020-100X,2023-02-01T13:06:38.655936,13.12443960,.0001461,87.8956,235.3250,84.6349,275.4946,0,U,47279,999,10318,.12316E-2,.456E-5,0
ONEWEB-0134,2020-100Y,2023-02-02T02:59:08.600640,13.12443937,.0001201,87.8934,235.2049,82.7880,277.3385,0,U,47280,999,10323,-.10654E-2,-.371E-5,0
