COSMOS 2548             
1 47230U 20091D   23033.06980166  .00000022  00000+0  90075-4 0  9993
2 47230  82.5039 347.3215 0015131   3.3793 356.7384 12.42893122 98261
GAOFEN 14               
1 47231U 20092A   23033.15192100  .00007969  00000+0  31643-3 0  9990
2 47231  97.3640 112.7305 0004667 352.2446  94.9699 15.25592430120135
GECAM-A                 
1 47234U 20094A   23033.15240475  .00001736  00000+0  15409-3 0  9992
2 47234  28.9979  44.5545 0012579 104.6876 255.5115 14.91952858117127
GECAM-B                 
1 47235U 20094B   23033.09667514  .00002670  00000+0  24332-3 0  9996
2 47235  28.9995  44.0942 0012750 104.6835 255.5126 14.92089202117125
SXM-7                   
1 47240U 20096A   23032.62367199 -.00000202  00000+0  00000+0 0  9990
2 47240   0.0183  62.0571 0001722 137.2487  71.5278  1.00271446  7985
IPM 2 & BREEZE-M R/B    
1 47242U 20097A   23031.57905142 -.00000088  00000+0  00000+0 0  9994
2 47242   2.0181  92.3832 0084416 241.7046 117.2116  0.95297667  7510
STRIX-ALPHA             
1 47253U 20098A   23033.14811572  .00026932  00000+0  78277-3 0  9995
2 47253  97.2930 284.6807 0012771  70.9113  85.0033 15.35355169118649
CMS-01                  
1 47256U 20099A   23032.08350517 -.00000162  00000+0  00000+0 0  9991
2 47256   0.0722  98.9444 0008258 179.6520 325.4705  1.00272098  7842
ONEWEB-0102             
1 47258U 20100A   23032.82792447 -.00000220  00000+0 -64615-3 0  9992
2 47258  87.8960 235.2656 0001145  88.7468 271.3792 13.12444656103211
ONEWEB-0109             
1 47259U 20100B   23032.53357089  .00000208  00000+0  54224-3 0  9999
2 47259  87.8925 235.3464 0001491  85.8061 274.3238 13.12442840103000
ONEWEB-0110             
1 47260U 20100C   23032.55687579  .00000340  00000+0  90879-3 0  9996
2 47260  87.8920 235.3138 0001273  84.2952 275.8322 13.12441536103174
ONEWEB-0111             
1 47261U 20100D   23032.81734442 -.00000470  00000+0 -13418-2 0  9997
2 47261  87.8920 235.2447 0001258  88.2410 271.8863 13.12441230103046
ONEWEB-0114             
1 47262U 20100E   23032.54414167  .00000455  00000+0  12280-2 0  9994
2 47262  87.8922 235.3244 0001126 113.8227 246.3019 13.12445935102966
ONEWEB-0117             
1 47263U 20100F   23032.53569046  .00000275  00000+0  72953-3 0  9995
2 47263  87.8926 235.3524 0001515  86.6348 273.4954 13.12442781102971
ONEWEB-0118             
1 47264U 20100G   23032.49120699 -.00000003  00000+0 -42363-4 0  9992
2 47264  87.8927 235.3141 0001705 117.4284 242.7018 13.12442446103161
ONEWEB-0119             
1 47265U 20100H   23033.05239295 -.00000359  00000+0 -10324-2 0  9993
2 47265  87.8959 235.2213 0001517  84.5761 275.5540 13.12439177103218
ONEWEB-0120             
1 47266U 20100J   23033.08311402  .00000489  00000+0  13244-2 0  9994
2 47266  87.8887 235.2532 0001365  98.1747 261.9536 13.12444413103245
ONEWEB-0121             
1 47267U 20100K   23032.83640552  .00000090  00000+0  21577-3 0  9995
2 47267  87.8861 235.2729 0001544  81.6519 278.4784 13.12442579103125
ONEWEB-0122             
1 47268U 20100L   23032.83004302 -.00000146  00000+0 -44148-3 0  9996
2 47268  87.8923 235.2670 0001253  89.3930 270.7342 13.12444908103032
ONEWEB-0123             
1 47269U 20100M   23033.05452912 -.00000171  00000+0 -51129-3 0  9991
2 47269  87.8950 235.2256 0001483  91.1368 268.9930 13.12444588103209
ONEWEB-0124             
1 47270U 20100N   23032.81309497 -.00000425  00000+0 -12173-2 0  9992
2 47270  87.8920 235.2763 0001592  72.5628 287.5675 13.12444714103051
ONEWEB-0125             
1 47271U 20100P   23032.56109673  .00000231  00000+0  60710-3 0  9993
2 47271  87.8924 235.3430 0001410  94.5809 265.5481 13.12443615103085
ONEWEB-0126             
1 47272U 20100Q   23032.81626894 -.00000435  00000+0 -12441-2 0  9996
2 47272  87.8923 235.2880 0001259  93.7411 266.3862 13.12445826103183
ONEWEB-0127             
1 47273U 20100R   23032.55053219  .00000854  00000+0  23389-2 0  9999
2 47273  87.8960 235.3090 0001391  90.9398 269.1889 13.12441663103173
ONEWEB-0128             
1 47274U 20100S   23033.10534057 -.00000003  00000+0 -42747-4 0  9995
2 47274  87.8928 235.2005 0001254  73.7669 286.3597 13.12443844103261
ONEWEB-0129             
1 47275U 20100T   23032.55263249  .00000482  00000+0  13034-2 0  9990
2 47275  87.8921 235.3546 0001375 167.4136 192.7027 13.12441142103122
ONEWEB-0130             
1 47276U 20100U   23032.50179212 -.00000270  00000+0 -78609-3 0  9999
2 47276  87.8921 235.3572 0001396  86.5325 273.5963 13.12440178103086
ONEWEB-0131             
1 47277U 20100V   23033.10957684 -.00000186  00000+0 -55108-3 0  9999
2 47277  87.8921 235.1815 0001484  82.3246 277.8051 13.12442904103207
ONEWEB-0132             
1 47278U 20100W   23032.83427573 -.00000049  00000+0 -17278-3 0  9992
2 47278  87.8923 235.2378 0001335  95.5037 264.6244 13.12444913103068
ONEWEB-0133             
1 47279U 20100X   23032.54628074  .00000456  00000+0  12316-2 0  9997
2 47279  87.8956 235.3250 0001461  84.6349 275.4946 13.12443960103183
ONEWEB-0134             
1 47280U 20100Y   23033.12440510 -.00000371  00000+0 -10654-2 0  9992
2 47280  87.8934 235.2049 0001201  82.7880 277.3385 13.12443937103235
